[{"OBJECT_NAME":"STARLINK-3107","OBJECT_ID":"2021-082AT","EPOCH":"2026-03-09T21:59:27.140640","MEAN_MOTION":15.10504087,"ECCENTRICITY":0.00073375,"INCLINATION":69.9932,"RA_OF_ASC_NODE":287.3824,"ARG_OF_PERICENTER":250.2407,"MEAN_ANOMALY":109.7967,"EPHEMERIS_TYPE":0,"CLASSIFICATION_TYPE":"U","NORAD_CAT_ID":49171,"ELEMENT_SET_NO":999,"REV_AT_EPOCH":24733,"BSTAR":0.001517345,"MEAN_MOTION_DOT":0.00025048,"MEAN_MOTION_DDOT":0},{"OBJECT_NAME":"ARIANE 1 DEB","OBJECT_ID":"1979-104AJ","EPOCH":"2026-03-07T03:22:54.129792","MEAN_MOTION":3.16549064,"ECCENTRICITY":0.64831584,"INCLINATION":19.0541,"RA_OF_ASC_NODE":72.0936,"ARG_OF_PERICENTER":19.6334,"MEAN_ANOMALY":356.7874,"EPHEMERIS_TYPE":0,"CLASSIFICATION_TYPE":"U","NORAD_CAT_ID":40781,"ELEMENT_SET_NO":999,"REV_AT_EPOCH":2020,"BSTAR":0.0026362157,"MEAN_MOTION_DOT":5.47e-6,"MEAN_MOTION_DDOT":0}]
